start=new Date('2021-11-06T00:00:00.000Z').valueOf();
sats=[{"TLE_LINE1":"1 48323U 21036AZ  21309.87865401  .00007633  00000-0  53028-3 0  9996","APOAPSIS":"548.159","SEMIMAJOR_AXIS":"6925.238","DECAY_DATE":null,"OBJECT_NAME":"STARLINK-2515","CENTER_NAME":"EARTH","LAUNCH_DATE":"2021-04-29","GP_ID":"189047562","PERIAPSIS":"546.047","OBJECT_ID":"2021-036AZ","TIME_SYSTEM":"UTC","SITE":"AFETR","COUNTRY_CODE":"US","FILE":"3204412","RCS_SIZE":"LARGE","MEAN_ANOMALY":"280.9161","BSTAR":"0.00053028000000","CLASSIFICATION_TYPE":"U","ELEMENT_SET_NO":"999","MEAN_MOTION_DOT":"0.00007633","EPHEMERIS_TYPE":"0","MEAN_MOTION_DDOT":"0.0000000000000","REF_FRAME":"TEME","ECCENTRICITY":"0.00015250","EPOCH":"2021-11-05T21:05:15.706464","OBJECT_TYPE":"PAYLOAD","TLE_LINE2":"2 48323  53.0564  16.1095 0001525  79.2000 280.9161 15.06436172 29168","RA_OF_ASC_NODE":"16.1095","MEAN_MOTION":"15.06436172","PERIOD":"95.590","ARG_OF_PERICENTER":"79.2000","INCLINATION":"53.0564","MEAN_ELEMENT_THEORY":"SGP4","REV_AT_EPOCH":"2916","NORAD_CAT_ID":"48323"},{"MEAN_MOTION":"15.06420624","RA_OF_ASC_NODE":"17.0314","ARG_OF_PERICENTER":"73.2692","PERIOD":"95.591","REV_AT_EPOCH":"2912","NORAD_CAT_ID":"48324","INCLINATION":"53.0556","MEAN_ELEMENT_THEORY":"SGP4","EPHEMERIS_TYPE":"0","MEAN_MOTION_DOT":"0.00006213","REF_FRAME":"TEME","MEAN_MOTION_DDOT":"0.0000000000000","ELEMENT_SET_NO":"999","ECCENTRICITY":"0.00013020","EPOCH":"2021-11-05T16:13:20.149824","OBJECT_TYPE":"PAYLOAD","TLE_LINE2":"2 48324  53.0556  17.0314 0001302  73.2692 286.8440 15.06420624 29124","SITE":"AFETR","COUNTRY_CODE":"US","PERIAPSIS":"546.249","OBJECT_ID":"2021-036BA","TIME_SYSTEM":"UTC","BSTAR":"0.00043539000000","CLASSIFICATION_TYPE":"U","FILE":"3204412","RCS_SIZE":"LARGE","MEAN_ANOMALY":"286.8440","DECAY_DATE":null,"TLE_LINE1":"1 48324U 21036BA  21309.67592766  .00006213  00000-0  43539-3 0  9995","APOAPSIS":"548.052","SEMIMAJOR_AXIS":"6925.285","LAUNCH_DATE":"2021-04-29","GP_ID":"189045457","OBJECT_NAME":"STARLINK-2527","CENTER_NAME":"EARTH"},{"NORAD_CAT_ID":"48325","REV_AT_EPOCH":"2912","INCLINATION":"53.0569","MEAN_ELEMENT_THEORY":"SGP4","ARG_OF_PERICENTER":"74.0363","PERIOD":"95.590","MEAN_MOTION":"15.06428872","RA_OF_ASC_NODE":"17.3403","OBJECT_TYPE":"PAYLOAD","TLE_LINE2":"2 48325  53.0569  17.3403 0001315  74.0363 286.0770 15.06428872 29120","ECCENTRICITY":"0.00013150","EPOCH":"2021-11-05T14:32:29.576832","MEAN_MOTION_DDOT":"0.0000000000000","REF_FRAME":"TEME","EPHEMERIS_TYPE":"0","MEAN_MOTION_DOT":"0.00006637","ELEMENT_SET_NO":"999","CLASSIFICATION_TYPE":"U","BSTAR":"0.00046371000000","RCS_SIZE":"LARGE","FILE":"3204412","MEAN_ANOMALY":"286.0770","SITE":"AFETR","COUNTRY_CODE":"US","OBJECT_ID":"2021-036BB","TIME_SYSTEM":"UTC","PERIAPSIS":"546.214","GP_ID":"189046200","LAUNCH_DATE":"2021-04-29","CENTER_NAME":"EARTH","OBJECT_NAME":"STARLINK-2495","DECAY_DATE":null,"TLE_LINE1":"1 48325U 21036BB  21309.60589788  .00006637  00000-0  46371-3 0  9996","APOAPSIS":"548.036","SEMIMAJOR_AXIS":"6925.260"},{"RA_OF_ASC_NODE":"17.3404","MEAN_MOTION":"15.06432369","PERIOD":"95.590","ARG_OF_PERICENTER":"69.2502","INCLINATION":"53.0557","MEAN_ELEMENT_THEORY":"SGP4","REV_AT_EPOCH":"2912","NORAD_CAT_ID":"48326","ELEMENT_SET_NO":"999","EPHEMERIS_TYPE":"0","MEAN_MOTION_DOT":"0.00012167","MEAN_MOTION_DDOT":"0.0000000000000","REF_FRAME":"TEME","ECCENTRICITY":"0.00015730","EPOCH":"2021-11-05T14:27:11.263680","OBJECT_TYPE":"PAYLOAD","TLE_LINE2":"2 48326  53.0557  17.3404 0001573  69.2502 290.8655 15.06432369 29127","PERIAPSIS":"546.025","OBJECT_ID":"2021-036BC","TIME_SYSTEM":"UTC","SITE":"AFETR","COUNTRY_CODE":"US","RCS_SIZE":"LARGE","FILE":"3204412","MEAN_ANOMALY":"290.8655","BSTAR":"0.00083360000000","CLASSIFICATION_TYPE":"U","TLE_LINE1":"1 48326U 21036BC  21309.60221370  .00012167  00000-0  83360-3 0  9991","APOAPSIS":"548.204","SEMIMAJOR_AXIS":"6925.249","DECAY_DATE":null,"OBJECT_NAME":"STARLINK-2498","CENTER_NAME":"EARTH","LAUNCH_DATE":"2021-04-29","GP_ID":"189046459"},{"COUNTRY_CODE":"US","SITE":"AFETR","PERIAPSIS":"546.349","OBJECT_ID":"2021-036BD","TIME_SYSTEM":"UTC","BSTAR":"0.00041229000000","CLASSIFICATION_TYPE":"U","MEAN_ANOMALY":"289.1038","FILE":"3204412","RCS_SIZE":"LARGE","DECAY_DATE":null,"SEMIMAJOR_AXIS":"6925.285","TLE_LINE1":"1 48327U 21036BD  21309.59852607  .00005868  00000-0  41229-3 0  9991","APOAPSIS":"547.950","LAUNCH_DATE":"2021-04-29","GP_ID":"189047187","OBJECT_NAME":"STARLINK-2502","CENTER_NAME":"EARTH","MEAN_MOTION":"15.06420789","RA_OF_ASC_NODE":"17.3547","ARG_OF_PERICENTER":"71.0077","PERIOD":"95.591","REV_AT_EPOCH":"2912","NORAD_CAT_ID":"48327","MEAN_ELEMENT_THEORY":"SGP4","INCLINATION":"53.0555","MEAN_MOTION_DOT":"0.00005868","EPHEMERIS_TYPE":"0","MEAN_MOTION_DDOT":"0.0000000000000","REF_FRAME":"TEME","ELEMENT_SET_NO":"999","EPOCH":"2021-11-05T14:21:52.652448","ECCENTRICITY":"0.00011560","TLE_LINE2":"2 48327  53.0555  17.3547 0001156  71.0077 289.1038 15.06420789 29128","OBJECT_TYPE":"PAYLOAD"},{"DECAY_DATE":null,"TLE_LINE1":"1 48328U 21036BE  21309.59484117  .00010927  00000-0  75066-3 0  9997","APOAPSIS":"548.053","SEMIMAJOR_AXIS":"6925.248","LAUNCH_DATE":"2021-04-29","GP_ID":"189045957","OBJECT_NAME":"STARLINK-2504","CENTER_NAME":"EARTH","COUNTRY_CODE":"US","SITE":"AFETR","PERIAPSIS":"546.172","TIME_SYSTEM":"UTC","OBJECT_ID":"2021-036BE","BSTAR":"0.00075066000000","CLASSIFICATION_TYPE":"U","RCS_SIZE":"LARGE","FILE":"3204412","MEAN_ANOMALY":"276.2877","EPHEMERIS_TYPE":"0","MEAN_MOTION_DOT":"0.00010927","REF_FRAME":"TEME","MEAN_MOTION_DDOT":"0.0000000000000","ELEMENT_SET_NO":"999","ECCENTRICITY":"0.00013580","EPOCH":"2021-11-05T14:16:34.277088","OBJECT_TYPE":"PAYLOAD","TLE_LINE2":"2 48328  53.0555  17.3742 0001358  83.8266 276.2877 15.06432870 29123","MEAN_MOTION":"15.06432870","RA_OF_ASC_NODE":"17.3742","ARG_OF_PERICENTER":"83.8266","PERIOD":"95.590","REV_AT_EPOCH":"2912","NORAD_CAT_ID":"48328","INCLINATION":"53.0555","MEAN_ELEMENT_THEORY":"SGP4"},{"CLASSIFICATION_TYPE":"U","BSTAR":"0.00025666000000","MEAN_ANOMALY":"281.3646","RCS_SIZE":"LARGE","FILE":"3204412","COUNTRY_CODE":"US","SITE":"AFETR","OBJECT_ID":"2021-036BF","TIME_SYSTEM":"UTC","PERIAPSIS":"546.351","GP_ID":"189046700","LAUNCH_DATE":"2021-04-29","CENTER_NAME":"EARTH","OBJECT_NAME":"STARLINK-2510","DECAY_DATE":null,"SEMIMAJOR_AXIS":"6925.313","TLE_LINE1":"1 48329U 21036BF  21309.59115375  .00003545  00000-0  25666-3 0  9994","APOAPSIS":"548.005","NORAD_CAT_ID":"48329","REV_AT_EPOCH":"2912","MEAN_ELEMENT_THEORY":"SGP4","INCLINATION":"53.0569","PERIOD":"95.591","ARG_OF_PERICENTER":"78.7478","MEAN_MOTION":"15.06411544","RA_OF_ASC_NODE":"17.3954","TLE_LINE2":"2 48329  53.0569  17.3954 0001194  78.7478 281.3646 15.06411544 29126","OBJECT_TYPE":"PAYLOAD","EPOCH":"2021-11-05T14:11:15.684000","ECCENTRICITY":"0.00011940","MEAN_MOTION_DDOT":"0.0000000000000","REF_FRAME":"TEME","EPHEMERIS_TYPE":"0","MEAN_MOTION_DOT":"0.00003545","ELEMENT_SET_NO":"999"},{"SEMIMAJOR_AXIS":"6925.264","TLE_LINE1":"1 48330U 21036BG  21309.91919245  .00004434  00000-0  31617-3 0  9991","APOAPSIS":"548.183","DECAY_DATE":null,"OBJECT_NAME":"STARLINK-2501","CENTER_NAME":"EARTH","LAUNCH_DATE":"2021-04-29","GP_ID":"189046959","PERIAPSIS":"546.075","TIME_SYSTEM":"UTC","OBJECT_ID":"2021-036BG","SITE":"AFETR","COUNTRY_CODE":"US","MEAN_ANOMALY":"297.7354","FILE":"3204412","RCS_SIZE":"LARGE","BSTAR":"0.00031617000000","CLASSIFICATION_TYPE":"U","ELEMENT_SET_NO":"999","MEAN_MOTION_DOT":"0.00004434","EPHEMERIS_TYPE":"0","REF_FRAME":"TEME","MEAN_MOTION_DDOT":"0.0000000000000","EPOCH":"2021-11-05T22:03:38.227680","ECCENTRICITY":"0.00015220","TLE_LINE2":"2 48330  53.0562  15.9293 0001522  62.3790 297.7354 15.06427510 29174","OBJECT_TYPE":"PAYLOAD","MEAN_MOTION":"15.06427510","RA_OF_ASC_NODE":"15.9293","PERIOD":"95.590","ARG_OF_PERICENTER":"62.3790","MEAN_ELEMENT_THEORY":"SGP4","INCLINATION":"53.0562","REV_AT_EPOCH":"2917","NORAD_CAT_ID":"48330"},{"MEAN_ANOMALY":"283.7833","RCS_SIZE":"LARGE","FILE":"3204412","BSTAR":"0.00054133000000","CLASSIFICATION_TYPE":"U","PERIAPSIS":"546.130","OBJECT_ID":"2021-036BH","TIME_SYSTEM":"UTC","SITE":"AFETR","COUNTRY_CODE":"US","OBJECT_NAME":"STARLINK-2514","CENTER_NAME":"EARTH","LAUNCH_DATE":"2021-04-29","GP_ID":"189047563","SEMIMAJOR_AXIS":"6925.232","TLE_LINE1":"1 48331U 21036BH  21309.91551401  .00007799  00000-0  54133-3 0  9993","APOAPSIS":"548.065","DECAY_DATE":null,"MEAN_ELEMENT_THEORY":"SGP4","INCLINATION":"53.0557","REV_AT_EPOCH":"2917","NORAD_CAT_ID":"48331","RA_OF_ASC_NODE":"15.9401","MEAN_MOTION":"15.06437951","ARG_OF_PERICENTER":"76.3312","PERIOD":"95.590","EPOCH":"2021-11-05T21:58:20.410464","ECCENTRICITY":"0.00013970","OBJECT_TYPE":"PAYLOAD","TLE_LINE2":"2 48331  53.0557  15.9401 0001397  76.3312 283.7833 15.06437951 29172","ELEMENT_SET_NO":"999","MEAN_MOTION_DOT":"0.00007799","EPHEMERIS_TYPE":"0","MEAN_MOTION_DDOT":"0.0000000000000","REF_FRAME":"TEME"},{"TLE_LINE1":"1 48332U 21036BJ  21309.91457920  .00085488  00000-0  57358-2 0  9997","APOAPSIS":"549.516","SEMIMAJOR_AXIS":"6926.282","DECAY_DATE":null,"OBJECT_NAME":"STARLINK-2511","CENTER_NAME":"EARTH","LAUNCH_DATE":"2021-04-29","GP_ID":"189045458","PERIAPSIS":"546.779","TIME_SYSTEM":"UTC","OBJECT_ID":"2021-036BJ","SITE":"AFETR","COUNTRY_CODE":"US","RCS_SIZE":"LARGE","FILE":"3204412","MEAN_ANOMALY":"279.7911","BSTAR":"0.00573580000000","CLASSIFICATION_TYPE":"U","ELEMENT_SET_NO":"999","MEAN_MOTION_DOT":"0.00085488","EPHEMERIS_TYPE":"0","REF_FRAME":"TEME","MEAN_MOTION_DDOT":"0.0000000000000","ECCENTRICITY":"0.00019760","EPOCH":"2021-11-05T21:56:59.642880","TLE_LINE2":"2 48332  53.0571  15.9736 0001976  80.3301 279.7911 15.06095425 29174","OBJECT_TYPE":"PAYLOAD","RA_OF_ASC_NODE":"15.9736","MEAN_MOTION":"15.06095425","ARG_OF_PERICENTER":"80.3301","PERIOD":"95.611","INCLINATION":"53.0571","MEAN_ELEMENT_THEORY":"SGP4","REV_AT_EPOCH":"2917","NORAD_CAT_ID":"48332"}];
